IRIDIUM 920 [-]         
1 24871U 97034C   23106.29211915  .00000740  00000+0  22792-3 0  9992
2 24871  86.4048 188.8583 0012299 164.8221 195.3349 14.40146341352419
IRIDIUM 921 [-]         
1 24873U 97034E   23106.53995700  .00015300  00000+0  68270-3 0  9991
2 24873  86.3877 136.1056 0009178  79.9216 280.3063 15.21236806409869
IRIDIUM 26 [-]          
1 24903U 97043A   23106.43936403  .00000940  00000+0  31789-3 0  9998
2 24903  86.3921  83.1587 0002187  92.2652 267.8795 14.35840420342942
IRIDIUM 22 [-]          
1 24907U 97043E   23106.44766247  .00000856  00000+0  29542-3 0  9990
2 24907  86.3920  86.0600 0002202  86.8598 273.2850 14.34759472343061
DUMMY MASS 1 [-]        
1 24925U 97048A   23106.56806630  .00000712  00000+0  78912-4 0  9996
2 24925  86.3340 141.4800 0009285  78.1537 282.0728 14.85667251387407
DUMMY MASS 2 [-]        
1 24926U 97048B   23106.53594995  .00000691  00000+0  76963-4 0  9992
2 24926  86.3343 142.9630 0010178  85.9230 274.3157 14.85430984387194
IRIDIUM 29 [-]          
1 24944U 97051A   23106.51714435  .00000734  00000+0  25013-3 0  9994
2 24944  86.3910 116.1138 0002121  84.2325 275.9113 14.35218872339535
